{
  "type": "FeatureCollection",
  "features": [
    {
      "type": "Feature",
      "properties": {
        "norad_id": 40362,
        "name": "YAOGAN-26",
        "group": "resource",
        "lat": -67.13165117503036,
        "lon": -4.091946847651189,
        "alt_km": 459.5803805089772,
        "timestamp": "2025-12-03T19:33:06.636738+00:00",
        "meta_object_name": "YAOGAN-26",
        "meta_object_id": "2014-088A",
        "meta_epoch": "2025-12-03T13:36:18.261792",
        "meta_mean_motion": 15.38792214,
        "meta_eccentricity": 0.0007314,
        "meta_inclination": 97.0637,
        "meta_ra_of_asc_node": 338.5714,
        "meta_arg_of_pericenter": 54.828,
        "meta_mean_anomaly": 305.365,
        "meta_ephemeris_type": 0,
        "meta_classification_type": "U",
        "meta_norad_cat_id": 40362,
        "meta_element_set_no": 999,
        "meta_rev_at_epoch": 60753,
        "meta_bstar": 0.00064216,
        "meta_mean_motion_dot": 0.0002462,
        "meta_mean_motion_ddot": 0,
        "tle_line1": "1 40362U 14088A   25337.56687803  .00024620  00000+0  64216-3 0  9994",
        "tle_line2": "2 40362  97.0637 338.5714 0007314  54.8280 305.3650 15.38792214607537"
      },
      "geometry": {
        "type": "Point",
        "coordinates": [
          -4.091946847651189,
          -67.13165117503036
        ]
      }
    },
    {
      "type": "Feature",
      "properties": {
        "norad_id": 40376,
        "name": "SMAP",
        "group": "resource",
        "lat": 81.84672725274206,
        "lon": -103.41951304760516,
        "alt_km": 674.1330880347223,
        "timestamp": "2025-12-03T19:33:06.636748+00:00",
        "meta_object_name": "SMAP",
        "meta_object_id": "2015-003A",
        "meta_epoch": "2025-12-03T10:56:21.564096",
        "meta_mean_motion": 14.63325572,
        "meta_eccentricity": 0.0001214,
        "meta_inclination": 98.1292,
        "meta_ra_of_asc_node": 342.3136,
        "meta_arg_of_pericenter": 86.9581,
        "meta_mean_anomaly": 273.176,
        "meta_ephemeris_type": 0,
        "meta_classification_type": "U",
        "meta_norad_cat_id": 40376,
        "meta_element_set_no": 999,
        "meta_rev_at_epoch": 57899,
        "meta_bstar": 0.00017595,
        "meta_mean_motion_dot": 8.61e-06,
        "meta_mean_motion_ddot": 0,
        "tle_line1": "1 40376U 15003A   25337.45580514  .00000861  00000+0  17595-3 0  9995",
        "tle_line2": "2 40376  98.1292 342.3136 0001214  86.9581 273.1760 14.63325572578992"
      },
      "geometry": {
        "type": "Point",
        "coordinates": [
          -103.41951304760516,
          81.84672725274206
        ]
      }
    },
    {
      "type": "Feature",
      "properties": {
        "norad_id": 40536,
        "name": "KOMPSAT-3A",
        "group": "resource",
        "lat": 79.65192431809336,
        "lon": -95.95367838777878,
        "alt_km": 427.40525728184184,
        "timestamp": "2025-12-03T19:33:06.636759+00:00",
        "meta_object_name": "KOMPSAT-3A",
        "meta_object_id": "2015-014A",
        "meta_epoch": "2025-12-03T11:24:48.256128",
        "meta_mean_motion": 15.43424704,
        "meta_eccentricity": 0.0003795,
        "meta_inclination": 97.6772,
        "meta_ra_of_asc_node": 311.3148,
        "meta_arg_of_pericenter": 146.9372,
        "meta_mean_anomaly": 213.2113,
        "meta_ephemeris_type": 0,
        "meta_classification_type": "U",
        "meta_norad_cat_id": 40536,
        "meta_element_set_no": 999,
        "meta_rev_at_epoch": 59152,
        "meta_bstar": 0.00056183,
        "meta_mean_motion_dot": 0.00025077,
        "meta_mean_motion_ddot": 0,
        "tle_line1": "1 40536U 15014A   25337.47555852  .00025077  00000+0  56183-3 0  9996",
        "tle_line2": "2 40536  97.6772 311.3148 0003795 146.9372 213.2113 15.43424704591524"
      },
      "geometry": {
        "type": "Point",
        "coordinates": [
          -95.95367838777878,
          79.65192431809336
        ]
      }
    },
    {
      "type": "Feature",
      "properties": {
        "norad_id": 40697,
        "name": "SENTINEL-2A",
        "group": "resource",
        "lat": -76.30067082108197,
        "lon": 88.69195953048764,
        "alt_km": 797.0352683131541,
        "timestamp": "2025-12-03T19:33:06.636769+00:00",
        "meta_object_name": "SENTINEL-2A",
        "meta_object_id": "2015-028A",
        "meta_epoch": "2025-12-03T11:31:49.189152",
        "meta_mean_motion": 14.30821322,
        "meta_eccentricity": 0.0001041,
        "meta_inclination": 98.5703,
        "meta_ra_of_asc_node": 50.145,
        "meta_arg_of_pericenter": 93.8356,
        "meta_mean_anomaly": 266.2946,
        "meta_ephemeris_type": 0,
        "meta_classification_type": "U",
        "meta_norad_cat_id": 40697,
        "meta_element_set_no": 999,
        "meta_rev_at_epoch": 54574,
        "meta_bstar": 0.00011406,
        "meta_mean_motion_dot": 2.55e-06,
        "meta_mean_motion_ddot": 0,
        "tle_line1": "1 40697U 15028A   25337.48043043  .00000255  00000+0  11406-3 0  9994",
        "tle_line2": "2 40697  98.5703  50.1450 0001041  93.8356 266.2946 14.30821322545741"
      },
      "geometry": {
        "type": "Point",
        "coordinates": [
          88.69195953048764,
          -76.30067082108197
        ]
      }
    },
    {
      "type": "Feature",
      "properties": {
        "norad_id": 40701,
        "name": "GAOFEN-8",
        "group": "resource",
        "lat": 60.047394583128565,
        "lon": -10.914512158652514,
        "alt_km": 441.1577879937922,
        "timestamp": "2025-12-03T19:33:06.636779+00:00",
        "meta_object_name": "GAOFEN-8",
        "meta_object_id": "2015-030A",
        "meta_epoch": "2025-12-03T12:47:25.272960",
        "meta_mean_motion": 15.38056209,
        "meta_eccentricity": 0.0011198,
        "meta_inclination": 97.6905,
        "meta_ra_of_asc_node": 155.228,
        "meta_arg_of_pericenter": 170.5218,
        "meta_mean_anomaly": 189.624,
        "meta_ephemeris_type": 0,
        "meta_classification_type": "U",
        "meta_norad_cat_id": 40701,
        "meta_element_set_no": 999,
        "meta_rev_at_epoch": 58129,
        "meta_bstar": 0.00067951,
        "meta_mean_motion_dot": 0.00025465,
        "meta_mean_motion_ddot": 0,
        "tle_line1": "1 40701U 15030A   25337.53293140  .00025465  00000+0  67951-3 0  9990",
        "tle_line2": "2 40701  97.6905 155.2280 0011198 170.5218 189.6240 15.38056209581291"
      },
      "geometry": {
        "type": "Point",
        "coordinates": [
          -10.914512158652514,
          60.047394583128565
        ]
      }
    },
    {
      "type": "Feature",
      "properties": {
        "norad_id": 40718,
        "name": "CARBONITE 1 (CBNT-1)",
        "group": "resource",
        "lat": 34.21610278267076,
        "lon": 154.01478356913412,
        "alt_km": 628.4115759290426,
        "timestamp": "2025-12-03T19:33:06.636789+00:00",
        "meta_object_name": "CARBONITE 1 (CBNT-1)",
        "meta_object_id": "2015-032D",
        "meta_epoch": "2025-12-03T12:55:02.120736",
        "meta_mean_motion": 14.8267251,
        "meta_eccentricity": 0.0013853,
        "meta_inclination": 97.6399,
        "meta_ra_of_asc_node": 158.9877,
        "meta_arg_of_pericenter": 212.5471,
        "meta_mean_anomaly": 147.489,
        "meta_ephemeris_type": 0,
        "meta_classification_type": "U",
        "meta_norad_cat_id": 40718,
        "meta_element_set_no": 999,
        "meta_rev_at_epoch": 56034,
        "meta_bstar": 0.00048362,
        "meta_mean_motion_dot": 3.856e-05,
        "meta_mean_motion_ddot": 0,
        "tle_line1": "1 40718U 15032D   25337.53821899  .00003856  00000+0  48362-3 0  9993",
        "tle_line2": "2 40718  97.6399 158.9877 0013853 212.5471 147.4890 14.82672510560349"
      },
      "geometry": {
        "type": "Point",
        "coordinates": [
          154.01478356913412,
          34.21610278267076
        ]
      }
    },
    {
      "type": "Feature",
      "properties": {
        "norad_id": 40878,
        "name": "YAOGAN-27",
        "group": "resource",
        "lat": 38.09355417956058,
        "lon": -40.19323838461903,
        "alt_km": 1196.8221043840022,
        "timestamp": "2025-12-03T19:33:06.636800+00:00",
        "meta_object_name": "YAOGAN-27",
        "meta_object_id": "2015-040A",
        "meta_epoch": "2025-12-03T12:03:26.553024",
        "meta_mean_motion": 13.1605964,
        "meta_eccentricity": 0.0007739,
        "meta_inclination": 100.1004,
        "meta_ra_of_asc_node": 327.5405,
        "meta_arg_of_pericenter": 309.4799,
        "meta_mean_anomaly": 50.563,
        "meta_ephemeris_type": 0,
        "meta_classification_type": "U",
        "meta_norad_cat_id": 40878,
        "meta_element_set_no": 999,
        "meta_rev_at_epoch": 49192,
        "meta_bstar": 3.1693e-05,
        "meta_mean_motion_dot": -3e-07,
        "meta_mean_motion_ddot": 0,
        "tle_line1": "1 40878U 15040A   25337.50239066 -.00000030  00000+0  31693-4 0  9997",
        "tle_line2": "2 40878 100.1004 327.5405 0007739 309.4799  50.5630 13.16059640491927"
      },
      "geometry": {
        "type": "Point",
        "coordinates": [
          -40.19323838461903,
          38.09355417956058
        ]
      }
    }
  ]
}